{
  "type": "FeatureCollection",
  "features": [
    {
      "type": "Feature",
      "properties": {
        "norad_id": 66524,
        "name": "STARLINK-35687",
        "group": "last-30-days",
        "lat": -24.605867819760583,
        "lon": -79.3194170689019,
        "alt_km": 415.37861796562083,
        "timestamp": "2025-12-09T18:55:16.022234+00:00",
        "meta_object_name": "STARLINK-35687",
        "meta_object_id": "2025-265J",
        "meta_epoch": "2025-12-09T14:00:01.999872",
        "meta_mean_motion": 15.51881765,
        "meta_eccentricity": 0.00015048,
        "meta_inclination": 42.9999,
        "meta_ra_of_asc_node": 72.4455,
        "meta_arg_of_pericenter": 289.0118,
        "meta_mean_anomaly": 222.0669,
        "meta_ephemeris_type": 0,
        "meta_classification_type": "U",
        "meta_norad_cat_id": 66524,
        "meta_element_set_no": 999,
        "meta_rev_at_epoch": 448,
        "meta_bstar": -0.030598928,
        "meta_mean_motion_dot": -0.01682903,
        "meta_mean_motion_ddot": 0,
        "tle_line1": "1 66524U 25265J   25343.58335648 -.01682903  00000+0 -30599-1 0  9999",
        "tle_line2": "2 66524  42.9999  72.4455 0001504 289.0118 222.0669 15.51881765  4483"
      },
      "geometry": {
        "type": "Point",
        "coordinates": [
          -79.3194170689019,
          -24.605867819760583
        ]
      }
    },
    {
      "type": "Feature",
      "properties": {
        "norad_id": 66525,
        "name": "STARLINK-35975",
        "group": "last-30-days",
        "lat": -25.72845626354196,
        "lon": -77.62048384518803,
        "alt_km": 415.349049021288,
        "timestamp": "2025-12-09T18:55:16.022245+00:00",
        "meta_object_name": "STARLINK-35975",
        "meta_object_id": "2025-265K",
        "meta_epoch": "2025-12-09T14:00:01.999872",
        "meta_mean_motion": 15.51904021,
        "meta_eccentricity": 0.00013708,
        "meta_inclination": 43,
        "meta_ra_of_asc_node": 72.4413,
        "meta_arg_of_pericenter": 285.5217,
        "meta_mean_anomaly": 227.4499,
        "meta_ephemeris_type": 0,
        "meta_classification_type": "U",
        "meta_norad_cat_id": 66525,
        "meta_element_set_no": 999,
        "meta_rev_at_epoch": 448,
        "meta_bstar": -0.030876852,
        "meta_mean_motion_dot": -0.01697737,
        "meta_mean_motion_ddot": 0,
        "tle_line1": "1 66525U 25265K   25343.58335648 -.01697737  00000+0 -30877-1 0  9990",
        "tle_line2": "2 66525  43.0000  72.4413 0001370 285.5217 227.4499 15.51904021  4486"
      },
      "geometry": {
        "type": "Point",
        "coordinates": [
          -77.62048384518803,
          -25.72845626354196
        ]
      }
    },
    {
      "type": "Feature",
      "properties": {
        "norad_id": 66526,
        "name": "STARLINK-35932",
        "group": "last-30-days",
        "lat": -26.833154067103006,
        "lon": -75.88529361736201,
        "alt_km": 415.425048789868,
        "timestamp": "2025-12-09T18:55:16.022257+00:00",
        "meta_object_name": "STARLINK-35932",
        "meta_object_id": "2025-265L",
        "meta_epoch": "2025-12-09T14:00:01.999872",
        "meta_mean_motion": 15.51902978,
        "meta_eccentricity": 0.00014651,
        "meta_inclination": 43.0001,
        "meta_ra_of_asc_node": 72.4375,
        "meta_arg_of_pericenter": 288.6923,
        "meta_mean_anomaly": 226.1929,
        "meta_ephemeris_type": 0,
        "meta_classification_type": "U",
        "meta_norad_cat_id": 66526,
        "meta_element_set_no": 999,
        "meta_rev_at_epoch": 437,
        "meta_bstar": -0.030762269,
        "meta_mean_motion_dot": -0.01692088,
        "meta_mean_motion_ddot": 0,
        "tle_line1": "1 66526U 25265L   25343.58335648 -.01692088  00000+0 -30762-1 0  9998",
        "tle_line2": "2 66526  43.0001  72.4375 0001465 288.6923 226.1929 15.51902978  4379"
      },
      "geometry": {
        "type": "Point",
        "coordinates": [
          -75.88529361736201,
          -26.833154067103006
        ]
      }
    },
    {
      "type": "Feature",
      "properties": {
        "norad_id": 66527,
        "name": "STARLINK-35935",
        "group": "last-30-days",
        "lat": -27.922317034361136,
        "lon": -74.1070424280032,
        "alt_km": 415.4517176888148,
        "timestamp": "2025-12-09T18:55:16.022268+00:00",
        "meta_object_name": "STARLINK-35935",
        "meta_object_id": "2025-265M",
        "meta_epoch": "2025-12-09T14:00:01.999872",
        "meta_mean_motion": 15.51915996,
        "meta_eccentricity": 0.00013214,
        "meta_inclination": 42.9999,
        "meta_ra_of_asc_node": 72.4322,
        "meta_arg_of_pericenter": 286.111,
        "meta_mean_anomaly": 230.6904,
        "meta_ephemeris_type": 0,
        "meta_classification_type": "U",
        "meta_norad_cat_id": 66527,
        "meta_element_set_no": 999,
        "meta_rev_at_epoch": 448,
        "meta_bstar": -0.031171746,
        "meta_mean_motion_dot": -0.01712865,
        "meta_mean_motion_ddot": 0,
        "tle_line1": "1 66527U 25265M   25343.58335648 -.01712865  00000+0 -31172-1 0  9991",
        "tle_line2": "2 66527  42.9999  72.4322 0001321 286.1110 230.6904 15.51915996  4487"
      },
      "geometry": {
        "type": "Point",
        "coordinates": [
          -74.1070424280032,
          -27.922317034361136
        ]
      }
    },
    {
      "type": "Feature",
      "properties": {
        "norad_id": 66528,
        "name": "STARLINK-35928",
        "group": "last-30-days",
        "lat": -28.982057946915294,
        "lon": -72.30291519118634,
        "alt_km": 415.4810806802725,
        "timestamp": "2025-12-09T18:55:16.022278+00:00",
        "meta_object_name": "STARLINK-35928",
        "meta_object_id": "2025-265N",
        "meta_epoch": "2025-12-09T14:00:01.999872",
        "meta_mean_motion": 15.5190803,
        "meta_eccentricity": 0.00014161,
        "meta_inclination": 43.0002,
        "meta_ra_of_asc_node": 72.428,
        "meta_arg_of_pericenter": 286.866,
        "meta_mean_anomaly": 231.8523,
        "meta_ephemeris_type": 0,
        "meta_classification_type": "U",
        "meta_norad_cat_id": 66528,
        "meta_element_set_no": 999,
        "meta_rev_at_epoch": 448,
        "meta_bstar": -0.030905068,
        "meta_mean_motion_dot": -0.01699368,
        "meta_mean_motion_ddot": 0,
        "tle_line1": "1 66528U 25265N   25343.58335648 -.01699368  00000+0 -30905-1 0  9997",
        "tle_line2": "2 66528  43.0002  72.4280 0001416 286.8660 231.8523 15.51908030  4481"
      },
      "geometry": {
        "type": "Point",
        "coordinates": [
          -72.30291519118634,
          -28.982057946915294
        ]
      }
    },
    {
      "type": "Feature",
      "properties": {
        "norad_id": 66529,
        "name": "STARLINK-35933",
        "group": "last-30-days",
        "lat": -30.021089978839584,
        "lon": -70.45530247638469,
        "alt_km": 415.4255935713936,
        "timestamp": "2025-12-09T18:55:16.022288+00:00",
        "meta_object_name": "STARLINK-35933",
        "meta_object_id": "2025-265P",
        "meta_epoch": "2025-12-09T14:00:01.999872",
        "meta_mean_motion": 15.51915545,
        "meta_eccentricity": 0.00014346,
        "meta_inclination": 43,
        "meta_ra_of_asc_node": 72.4223,
        "meta_arg_of_pericenter": 282.2168,
        "meta_mean_anomaly": 238.4181,
        "meta_ephemeris_type": 0,
        "meta_classification_type": "U",
        "meta_norad_cat_id": 66529,
        "meta_element_set_no": 999,
        "meta_rev_at_epoch": 448,
        "meta_bstar": -0.031147603,
        "meta_mean_motion_dot": -0.01711711,
        "meta_mean_motion_ddot": 0,
        "tle_line1": "1 66529U 25265P   25343.58335648 -.01711711  00000+0 -31148-1 0  9995",
        "tle_line2": "2 66529  43.0000  72.4223 0001434 282.2168 238.4181 15.51915545  4482"
      },
      "geometry": {
        "type": "Point",
        "coordinates": [
          -70.45530247638469,
          -30.021089978839584
        ]
      }
    },
    {
      "type": "Feature",
      "properties": {
        "norad_id": 66530,
        "name": "STARLINK-35961",
        "group": "last-30-days",
        "lat": -31.03058755571854,
        "lon": -68.57359604884988,
        "alt_km": 415.5374995940674,
        "timestamp": "2025-12-09T18:55:16.022298+00:00",
        "meta_object_name": "STARLINK-35961",
        "meta_object_id": "2025-265Q",
        "meta_epoch": "2025-12-09T14:00:01.999872",
        "meta_mean_motion": 15.51910373,
        "meta_eccentricity": 0.0001439,
        "meta_inclination": 43.0001,
        "meta_ra_of_asc_node": 72.4182,
        "meta_arg_of_pericenter": 286.7155,
        "meta_mean_anomaly": 235.8369,
        "meta_ephemeris_type": 0,
        "meta_classification_type": "U",
        "meta_norad_cat_id": 66530,
        "meta_element_set_no": 999,
        "meta_rev_at_epoch": 448,
        "meta_bstar": -0.030988043,
        "meta_mean_motion_dot": -0.01703588,
        "meta_mean_motion_ddot": 0,
        "tle_line1": "1 66530U 25265Q   25343.58335648 -.01703588  00000+0 -30988-1 0  9991",
        "tle_line2": "2 66530  43.0001  72.4182 0001439 286.7155 235.8369 15.51910373  4482"
      },
      "geometry": {
        "type": "Point",
        "coordinates": [
          -68.57359604884988,
          -31.03058755571854
        ]
      }
    }
  ]
}